TEVEL2-5                
1 63214U 25052E   26068.96660006  .00021339  00000+0  71765-3 0  9991
2 63214  97.4013 325.3677 0004700  95.3936 264.7842 15.30817434 54919
STARLINK-34239          
1 64728U 25144E   26068.62417513  .00034550  00000+0  11737-2 0  9991
2 64728  53.1602 181.2192 0001334  77.2019 282.9131 15.30186319 39709
